{
  "norad_id": 65702,
  "name": "STARLINK-35075",
  "history": [
    {
      "epoch": "2026-03-28T17:58:49.066464",
      "apogee_km": 475.889640283428,
      "perigee_km": 474.5751640320932,
      "latitude_deg": 5.297263440836474,
      "longitude_deg": 102.12118496000767,
      "semi_major_axis_km": 6853.36940215776,
      "eccentricity": 9.59e-05,
      "inclination_deg": 53.1584,
      "raan_deg": 256.9984,
      "arg_perigee_deg": 80.4017,
      "mean_anomaly_deg": 279.7092,
      "mean_motion_rev_day": 15.30194195
    }
  ]
}